NSS-11 (AAP-1)          
1 26554U 00059A   17345.93632764 -.00000350  00000-0  00000-0 0  9995
2 26554   0.0092 334.6024 0002197 285.2689 266.1770  1.00269133 10135
